OBJECT_NAME,OBJECT_ID,EPOCH,MEAN_MOTION,ECCENTRICITY,INCLINATION,RA_OF_ASC_NODE,ARG_OF_PERICENTER,MEAN_ANOMALY,EPHEMERIS_TYPE,CLASSIFICATION_TYPE,NORAD_CAT_ID,ELEMENT_SET_NO,REV_AT_EPOCH,BSTAR,MEAN_MOTION_DOT,MEAN_MOTION_DDOT
LAOSAT 1,2015-067A,2026-07-08T00:37:20.535168,1.00272331,.0002426,0.0412,196.7620,221.7261,5.3539,0,U,41034,999,3906,0,-.327E-5,0
TELSTAR 12V,2015-068A,2026-07-07T17:05:49.192224,1.00270650,.0002243,0.0185,70.6764,35.3256,61.1281,0,U,41036,999,3883,0,-.104E-5,0
ELEKTRO-L 2,2015-074A,2026-07-07T22:13:54.581952,1.00273213,.0000653,6.7424,70.2697,234.7968,299.7776,0,U,41105,999,3871,0,-.107E-5,0
COSMOS 2513,2015-075A,2026-07-08T03:48:52.500672,1.00271995,.0002991,0.0630,105.4786,339.3870,338.7230,0,U,41121,999,3875,0,-.123E-5,0
EXPRESS-AMU1,2015-082A,2026-07-08T03:36:16.207776,1.00270220,.0002372,0.0189,39.0029,76.6512,260.6068,0,U,41191,999,3847,0,.171E-5,0
GAOFEN-4,2015-083A,2026-07-08T01:37:38.618112,1.00271148,.0004284,0.4079,83.8617,117.2357,215.0491,0,U,41194,999,3873,0,-.32E-5,0
BELINTERSAT-1,2016-001A,2026-07-08T03:40:45.778368,1.00271631,.0001806,0.0205,92.6670,338.3569,321.7553,0,U,41238,999,3844,0,.122E-5,0
IRNSS-1E,2016-003A,2026-07-07T13:47:38.735232,1.00269196,.0019202,33.2771,59.4542,178.8949,5.8336,0,U,41241,999,3828,0,-.304E-5,0
EUTELSAT 9B,2016-005A,2026-07-08T03:28:39.437760,1.00275727,.0001081,0.0194,38.4387,74.6771,234.1710,0,U,41310,999,3832,0,.78E-6,0
SES-9,2016-013A,2026-07-08T02:47:38.889312,1.00270202,.0002232,0.0173,322.8047,138.4933,334.9883,0,U,41380,999,3764,0,-.33E-5,0
EUTELSAT 65 WEST A,2016-014A,2026-07-08T01:24:49.361760,1.00272183,.0002175,0.0727,309.3128,157.3340,135.3962,0,U,41382,999,3773,0,-.261E-5,0
IRNSS-1F,2016-015A,2026-07-07T22:27:18.229824,1.00277721,.0017391,5.3995,96.3106,183.6305,15.3161,0,U,41384,999,3787,0,.17E-5,0
BEIDOU-2 IGSO-6,2016-021A,2026-06-26T02:38:38.671584,1.00258926,.0057558,60.2385,37.9495,231.0163,137.2672,0,U,41434,999,3757,0,-.145E-5,0
IRNSS-1G,2016-027A,2026-07-07T16:04:25.078080,1.00274910,.0005975,5.2447,97.0006,9.1698,190.2027,0,U,41469,999,3738,0,-.321E-5,0
JCSAT-2B,2016-028A,2026-07-08T04:35:38.560128,1.00270916,.0000925,0.0186,31.5106,86.3928,31.1638,0,U,41471,999,3734,0,-.15E-5,0
THAICOM 8,2016-031A,2026-07-07T22:40:24.475008,1.00271206,.0003225,0.0612,38.9342,33.0866,272.4842,0,U,41552,999,3692,0,-.106E-5,0
INTELSAT 31 (IS-31),2016-035A,2026-07-08T04:22:25.228416,1.00270297,.0001013,0.0347,238.5086,48.3346,329.8548,0,U,41581,999,3689,0,-.136E-5,0
BEIDOU-2 G7,2016-037A,2026-07-08T02:47:38.889312,1.00265962,.0006395,1.7685,69.4673,6.2627,2.7126,0,U,41586,999,710,0,-.339E-5,0
ABS-2A (MONGOLSAT-1),2016-038A,2026-07-08T03:47:22.642944,1.00267551,.00013,0.0183,21.0428,31.6137,5.0238,0,U,41588,999,3691,0,0,0
EUTELSAT 117 WEST B,2016-038B,2026-07-07T16:36:44.479008,1.00274900,.0000098,0.0043,194.6007,339.2111,244.0229,0,U,41589,999,3686,0,.3E-7,0
BRISAT,2016-039A,2026-07-07T16:10:24.502944,1.00268930,.0001998,0.0172,5.9287,103.9101,208.8981,0,U,41591,999,3681,0,0,0
ECHOSTAR 18,2016-039B,2026-07-08T02:59:29.321088,1.00272101,.0001415,0.0188,38.6602,80.3880,150.5437,0,U,41592,999,3683,0,-.267E-5,0
MUOS-5,2016-041A,2026-07-08T02:56:18.880800,1.00272030,.0199098,2.1608,302.0383,260.6242,22.3496,0,U,41622,999,3729,0,-.96E-6,0
TIANTONG-1 1,2016-048A,2026-07-08T02:12:19.777248,1.00272393,.000515,3.8873,43.5629,55.1457,321.8264,0,U,41725,999,3648,0,-.305E-5,0
JCSAT-16,2016-050A,2026-07-08T04:06:58.266144,1.00269463,.000085,0.0254,37.0561,93.2744,1.4935,0,U,41729,999,3628,0,0,0
USA 270,2016-052A,2026-06-25T15:01:47.554176,0.99500516,.0000668,4.2178,77.0981,157.1810,56.2495,0,U,41744,999,2821,0,-.284E-5,0
USA 271,2016-052B,2026-06-25T18:13:09.824736,0.99833204,.0001955,4.1909,77.1447,290.7679,281.9940,0,U,41745,999,2800,0,-.236E-5,0
INTELSAT 36 (IS-36),2016-053A,2026-07-07T19:12:15.203808,1.00285795,.0000975,0.0091,10.2892,27.8198,244.1989,0,U,41747,999,3616,0,-.12E-6,0
INSAT-3DR,2016-054A,2026-07-08T04:42:21.744000,1.00272156,.001048,0.0514,89.3306,181.2584,160.1529,0,U,41752,999,3602,0,-.62E-6,0
GSAT-18,2016-060A,2026-07-08T04:42:21.744000,1.00271330,.0005488,0.0167,87.0062,349.8375,353.8697,0,U,41793,999,3573,0,-.62E-6,0
SKY MUSTER 2 (NBN1B),2016-060B,2026-07-08T04:07:20.730144,1.00270614,.0001527,0.0153,331.4596,139.0922,22.2069,0,U,41794,999,3573,0,-.229E-5,0
HIMAWARI-9,2016-064A,2026-07-07T21:15:34.676064,1.00271011,.0002188,0.0160,20.5201,154.3343,210.6522,0,U,41836,999,3541,0,0,0
